[Satellite]
VERSION=1.1
NAME=SL-14 R/B
NICKNAME=SL-14 R/B
TLE1=1 21820U 91086B   17186.20168624  .00000038  00000-0  70071-5 0  9990
TLE2=2 21820  82.5637 107.8606 1576358 237.2774 106.6657 11.93311797108935
